0 FENGYUN 1C DEB
1 37475U 99025EJV 13283.34482928  .00001817  00000-0  89738-3 0   815
2 37475 099.0105 325.9907 0127583 346.2716 013.5431 14.14552236208394
0 FENGYUN 1C DEB
1 37475U 99025EJV 13284.33506886  .00001859  00000-0  91677-3 0   827
2 37475 099.0093 326.9854 0128258 343.0347 016.7072 14.14557579208534
0 FENGYUN 1C DEB
1 37475U 99025EJV 13285.32530320  .00001883  00000-0  92769-3 0   838
2 37475 099.0082 327.9799 0128633 339.9276 019.7191 14.14562344208679
0 FENGYUN 1C DEB
1 37475U 99025EJV 13289.35697878  .00001951  00000-0  96063-3 0   845
2 37475 099.0091 332.0532 0128290 328.9787 030.4144 14.14579797209247
0 FENGYUN 1C DEB
1 37475U 99025EJV 13290.34720337  .00002032  00000-0  10000-2 0   851
2 37475 099.0124 333.0613 0127988 326.3668 033.0256 14.14586659209381
0 FENGYUN 1C DEB
1 37475U 99025EJV 13291.33741289  .00002076  00000-0  10224-2 0   867
2 37475 099.0118 334.0652 0127023 323.8543 035.4499 14.14592326209521
0 FENGYUN 1C DEB
1 37475U 99025EJV 13293.31784683  .00002143  00000-0  10514-2 0   870
2 37475 099.0081 336.0551 0129189 319.0069 040.1625 14.14602762209806
